{
    "regions": [
        {
            "name": "Guadeloupe",
            "inseeCode": "1"
        },
        {
            "name": "Martinique",
            "inseeCode": "2"
        },
        {
            "name": "Guyane",
            "inseeCode": "3"
        },
        {
            "name": "La Réunion",
            "inseeCode": "4"
        },
        {
            "name": "Mayotte",
            "inseeCode": "6"
        },
        {
            "name": "Île-de-France",
            "inseeCode": "11"
        },
        {
            "name": "Centre-Val de Loire",
            "inseeCode": "24"
        },
        {
            "name": "Bourgogne-Franche-Comté",
            "inseeCode": "27"
        },
        {
            "name": "Normandie",
            "inseeCode": "28"
        },
        {
            "name": "Hauts-de-France",
            "inseeCode": "32"
        },
        {
            "name": "Grand Est",
            "inseeCode": "44"
        },
        {
            "name": "Pays de la Loire",
            "inseeCode": "52"
        },
        {
            "name": "Bretagne",
            "inseeCode": "53"
        },
        {
            "name": "Nouvelle-Aquitaine",
            "inseeCode": "75"
        },
        {
            "name": "Occitanie",
            "inseeCode": "76"
        },
        {
            "name": "Auvergne-Rhône-Alpes",
            "inseeCode": "84"
        },
        {
            "name": "Provence-Alpes-Côte d'Azur",
            "inseeCode": "93"
        },
        {
            "name": "Corse",
            "inseeCode": "94"
        }
    ],
    "departments": [
        {
            "zipcode": "01",
            "inseeCode": "01",
            "name": "Ain",
            "region": "Auvergne-Rhône-Alpes"
        },
        {
            "zipcode": "02",
            "inseeCode": "02",
            "name": "Aisne",
            "region": "Hauts-de-France"
        },
        {
            "zipcode": "03",
            "inseeCode": "03",
            "name": "Allier",
            "region": "Auvergne-Rhône-Alpes"
        },
        {
            "zipcode": "04",
            "inseeCode": "04",
            "name": "Alpes-de-Haute-Provence",
            "region": "Provence-Alpes-Côte d'Azur"
        },
        {
            "zipcode": "05",
            "inseeCode": "05",
            "name": "Hautes-Alpes",
            "region": "Provence-Alpes-Côte d'Azur"
        },
        {
            "zipcode": "06",
            "inseeCode": "06",
            "name": "Alpes-Maritimes",
            "region": "Provence-Alpes-Côte d'Azur"
        },
        {
            "zipcode": "07",
            "inseeCode": "07",
            "name": "Ardèche",
            "region": "Auvergne-Rhône-Alpes"
        },
        {
            "zipcode": "08",
            "inseeCode": "08",
            "name": "Ardennes",
            "region": "Grand Est"
        },
        {
            "zipcode": "09",
            "inseeCode": "09",
            "name": "Ariège",
            "region": "Occitanie"
        },
        {
            "zipcode": "10",
            "inseeCode": "10",
            "name": "Aube",
            "region": "Grand Est"
        },
        {
            "zipcode": "11",
            "inseeCode": "11",
            "name": "Aude",
            "region": "Occitanie"
        },
        {
            "zipcode": "12",
            "inseeCode": "12",
            "name": "Aveyron",
            "region": "Occitanie"
        },
        {
            "zipcode": "13",
            "inseeCode": "13",
            "name": "Bouches-du-Rhône",
            "region": "Provence-Alpes-Côte d'Azur"
        },
        {
            "zipcode": "14",
            "inseeCode": "14",
            "name": "Calvados",
            "region": "Normandie"
        },
        {
            "zipcode": "15",
            "inseeCode": "15",
            "name": "Cantal",
            "region": "Auvergne-Rhône-Alpes"
        },
        {
            "zipcode": "16",
            "inseeCode": "16",
            "name": "Charente",
            "region": "Nouvelle-Aquitaine"
        },
        {
            "zipcode": "17",
            "inseeCode": "17",
            "name": "Charente-Maritime",
            "region": "Nouvelle-Aquitaine"
        },
        {
            "zipcode": "18",
            "inseeCode": "18",
            "name": "Cher",
            "region": "Centre-Val de Loire"
        },
        {
            "zipcode": "19",
            "inseeCode": "19",
            "name": "Corrèze",
            "region": "Nouvelle-Aquitaine"
        },
        {
            "zipcode": "21",
            "inseeCode": "21",
            "name": "Côte-d'Or",
            "region": "Bourgogne-Franche-Comté"
        },
        {
            "zipcode": "22",
            "inseeCode": "22",
            "name": "Côtes-d'Armor",
            "region": "Bretagne"
        },
        {
            "zipcode": "23",
            "inseeCode": "23",
            "name": "Creuse",
            "region": "Nouvelle-Aquitaine"
        },
        {
            "zipcode": "24",
            "inseeCode": "24",
            "name": "Dordogne",
            "region": "Nouvelle-Aquitaine"
        },
        {
            "zipcode": "25",
            "inseeCode": "25",
            "name": "Doubs",
            "region": "Bourgogne-Franche-Comté"
        },
        {
            "zipcode": "26",
            "inseeCode": "26",
            "name": "Drôme",
            "region": "Auvergne-Rhône-Alpes"
        },
        {
            "zipcode": "27",
            "inseeCode": "27",
            "name": "Eure",
            "region": "Normandie"
        },
        {
            "zipcode": "28",
            "inseeCode": "28",
            "name": "Eure-et-Loir",
            "region": "Centre-Val de Loire"
        },
        {
            "zipcode": "29",
            "inseeCode": "29",
            "name": "Finistère",
            "region": "Bretagne"
        },
        {
            "zipcode": "20",
            "inseeCode": "2A",
            "name": "Corse-du-Sud",
            "region": "Corse"
        },
        {
            "zipcode": "20",
            "inseeCode": "2B",
            "name": "Haute-Corse",
            "region": "Corse"
        },
        {
            "zipcode": "30",
            "inseeCode": "30",
            "name": "Gard",
            "region": "Occitanie"
        },
        {
            "zipcode": "31",
            "inseeCode": "31",
            "name": "Haute-Garonne",
            "region": "Occitanie"
        },
        {
            "zipcode": "32",
            "inseeCode": "32",
            "name": "Gers",
            "region": "Occitanie"
        },
        {
            "zipcode": "33",
            "inseeCode": "33",
            "name": "Gironde",
            "region": "Nouvelle-Aquitaine"
        },
        {
            "zipcode": "34",
            "inseeCode": "34",
            "name": "Hérault",
            "region": "Occitanie"
        },
        {
            "zipcode": "35",
            "inseeCode": "35",
            "name": "Ille-et-Vilaine",
            "region": "Bretagne"
        },
        {
            "zipcode": "36",
            "inseeCode": "36",
            "name": "Indre",
            "region": "Centre-Val de Loire"
        },
        {
            "zipcode": "37",
            "inseeCode": "37",
            "name": "Indre-et-Loire",
            "region": "Centre-Val de Loire"
        },
        {
            "zipcode": "38",
            "inseeCode": "38",
            "name": "Isère",
            "region": "Auvergne-Rhône-Alpes"
        },
        {
            "zipcode": "39",
            "inseeCode": "39",
            "name": "Jura",
            "region": "Bourgogne-Franche-Comté"
        },
        {
            "zipcode": "40",
            "inseeCode": "40",
            "name": "Landes",
            "region": "Nouvelle-Aquitaine"
        },
        {
            "zipcode": "41",
            "inseeCode": "41",
            "name": "Loir-et-Cher",
            "region": "Centre-Val de Loire"
        },
        {
            "zipcode": "42",
            "inseeCode": "42",
            "name": "Loire",
            "region": "Auvergne-Rhône-Alpes"
        },
        {
            "zipcode": "43",
            "inseeCode": "43",
            "name": "Haute-Loire",
            "region": "Auvergne-Rhône-Alpes"
        },
        {
            "zipcode": "44",
            "inseeCode": "44",
            "name": "Loire-Atlantique",
            "region": "Pays de la Loire"
        },
        {
            "zipcode": "45",
            "inseeCode": "45",
            "name": "Loiret",
            "region": "Centre-Val de Loire"
        },
        {
            "zipcode": "46",
            "inseeCode": "46",
            "name": "Lot",
            "region": "Occitanie"
        },
        {
            "zipcode": "47",
            "inseeCode": "47",
            "name": "Lot-et-Garonne",
            "region": "Nouvelle-Aquitaine"
        },
        {
            "zipcode": "48",
            "inseeCode": "48",
            "name": "Lozère",
            "region": "Occitanie"
        },
        {
            "zipcode": "49",
            "inseeCode": "49",
            "name": "Maine-et-Loire",
            "region": "Pays de la Loire"
        },
        {
            "zipcode": "50",
            "inseeCode": "50",
            "name": "Manche",
            "region": "Normandie"
        },
        {
            "zipcode": "51",
            "inseeCode": "51",
            "name": "Marne",
            "region": "Grand Est"
        },
        {
            "zipcode": "52",
            "inseeCode": "52",
            "name": "Haute-Marne",
            "region": "Grand Est"
        },
        {
            "zipcode": "53",
            "inseeCode": "53",
            "name": "Mayenne",
            "region": "Pays de la Loire"
        },
        {
            "zipcode": "54",
            "inseeCode": "54",
            "name": "Meurthe-et-Moselle",
            "region": "Grand Est"
        },
        {
            "zipcode": "55",
            "inseeCode": "55",
            "name": "Meuse",
            "region": "Grand Est"
        },
        {
            "zipcode": "56",
            "inseeCode": "56",
            "name": "Morbihan",
            "region": "Bretagne"
        },
        {
            "zipcode": "57",
            "inseeCode": "57",
            "name": "Moselle",
            "region": "Grand Est"
        },
        {
            "zipcode": "58",
            "inseeCode": "58",
            "name": "Nièvre",
            "region": "Bourgogne-Franche-Comté"
        },
        {
            "zipcode": "59",
            "inseeCode": "59",
            "name": "Nord",
            "region": "Hauts-de-France"
        },
        {
            "zipcode": "60",
            "inseeCode": "60",
            "name": "Oise",
            "region": "Hauts-de-France"
        },
        {
            "zipcode": "61",
            "inseeCode": "61",
            "name": "Orne",
            "region": "Normandie"
        },
        {
            "zipcode": "62",
            "inseeCode": "62",
            "name": "Pas-de-Calais",
            "region": "Hauts-de-France"
        },
        {
            "zipcode": "63",
            "inseeCode": "63",
            "name": "Puy-de-Dôme",
            "region": "Auvergne-Rhône-Alpes"
        },
        {
            "zipcode": "64",
            "inseeCode": "64",
            "name": "Pyrénées-Atlantiques",
            "region": "Nouvelle-Aquitaine"
        },
        {
            "zipcode": "65",
            "inseeCode": "65",
            "name": "Hautes-Pyrénées",
            "region": "Occitanie"
        },
        {
            "zipcode": "66",
            "inseeCode": "66",
            "name": "Pyrénées-Orientales",
            "region": "Occitanie"
        },
        {
            "zipcode": "67",
            "inseeCode": "67",
            "name": "Bas-Rhin",
            "region": "Grand Est"
        },
        {
            "zipcode": "68",
            "inseeCode": "68",
            "name": "Haut-Rhin",
            "region": "Grand Est"
        },
        {
            "zipcode": "69",
            "inseeCode": "69",
            "name": "Rhône",
            "region": "Auvergne-Rhône-Alpes"
        },
        {
            "zipcode": "70",
            "inseeCode": "70",
            "name": "Haute-Saône",
            "region": "Bourgogne-Franche-Comté"
        },
        {
            "zipcode": "71",
            "inseeCode": "71",
            "name": "Saône-et-Loire",
            "region": "Bourgogne-Franche-Comté"
        },
        {
            "zipcode": "72",
            "inseeCode": "72",
            "name": "Sarthe",
            "region": "Pays de la Loire"
        },
        {
            "zipcode": "73",
            "inseeCode": "73",
            "name": "Savoie",
            "region": "Auvergne-Rhône-Alpes"
        },
        {
            "zipcode": "74",
            "inseeCode": "74",
            "name": "Haute-Savoie",
            "region": "Auvergne-Rhône-Alpes"
        },
        {
            "zipcode": "75",
            "inseeCode": "75",
            "name": "Paris",
            "region": "Île-de-France"
        },
        {
            "zipcode": "76",
            "inseeCode": "76",
            "name": "Seine-Maritime",
            "region": "Normandie"
        },
        {
            "zipcode": "77",
            "inseeCode": "77",
            "name": "Seine-et-Marne",
            "region": "Île-de-France"
        },
        {
            "zipcode": "78",
            "inseeCode": "78",
            "name": "Yvelines",
            "region": "Île-de-France"
        },
        {
            "zipcode": "79",
            "inseeCode": "79",
            "name": "Deux-Sèvres",
            "region": "Nouvelle-Aquitaine"
        },
        {
            "zipcode": "80",
            "inseeCode": "80",
            "name": "Somme",
            "region": "Hauts-de-France"
        },
        {
            "zipcode": "81",
            "inseeCode": "81",
            "name": "Tarn",
            "region": "Occitanie"
        },
        {
            "zipcode": "82",
            "inseeCode": "82",
            "name": "Tarn-et-Garonne",
            "region": "Occitanie"
        },
        {
            "zipcode": "83",
            "inseeCode": "83",
            "name": "Var",
            "region": "Provence-Alpes-Côte d'Azur"
        },
        {
            "zipcode": "84",
            "inseeCode": "84",
            "name": "Vaucluse",
            "region": "Provence-Alpes-Côte d'Azur"
        },
        {
            "zipcode": "85",
            "inseeCode": "85",
            "name": "Vendée",
            "region": "Pays de la Loire"
        },
        {
            "zipcode": "86",
            "inseeCode": "86",
            "name": "Vienne",
            "region": "Nouvelle-Aquitaine"
        },
        {
            "zipcode": "87",
            "inseeCode": "87",
            "name": "Haute-Vienne",
            "region": "Nouvelle-Aquitaine"
        },
        {
            "zipcode": "88",
            "inseeCode": "88",
            "name": "Vosges",
            "region": "Grand Est"
        },
        {
            "zipcode": "89",
            "inseeCode": "89",
            "name": "Yonne",
            "region": "Bourgogne-Franche-Comté"
        },
        {
            "zipcode": "90",
            "inseeCode": "90",
            "name": "Territoire de Belfort",
            "region": "Bourgogne-Franche-Comté"
        },
        {
            "zipcode": "91",
            "inseeCode": "91",
            "name": "Essonne",
            "region": "Île-de-France"
        },
        {
            "zipcode": "92",
            "inseeCode": "92",
            "name": "Hauts-de-Seine",
            "region": "Île-de-France"
        },
        {
            "zipcode": "93",
            "inseeCode": "93",
            "name": "Seine-Saint-Denis",
            "region": "Île-de-France"
        },
        {
            "zipcode": "94",
            "inseeCode": "94",
            "name": "Val-de-Marne",
            "region": "Île-de-France"
        },
        {
            "zipcode": "95",
            "inseeCode": "95",
            "name": "Val-d'Oise",
            "region": "Île-de-France"
        },
        {
            "zipcode": "971",
            "inseeCode": "971",
            "name": "Guadeloupe",
            "region": "Guadeloupe"
        },
        {
            "zipcode": "972",
            "inseeCode": "972",
            "name": "Martinique",
            "region": "Martinique"
        },
        {
            "zipcode": "973",
            "inseeCode": "973",
            "name": "Guyane",
            "region": "Guyane"
        },
        {
            "zipcode": "974",
            "inseeCode": "974",
            "name": "La Réunion",
            "region": "La Réunion"
        },
        {
            "zipcode": "976",
            "inseeCode": "976",
            "name": "Mayotte",
            "region": "Mayotte"
        }
    ]
}
